[
  {
    "OBJECT_NAME": "STARLINK-31351",
    "OBJECT_ID": "24031H",
    "EPOCH": "2025-11-11T04:55:23.468736",
    "MEAN_MOTION": 15.30201562,
    "ECCENTRICITY": 0.0001383,
    "INCLINATION": 53.1605,
    "RA_OF_ASC_NODE": 126.9746,
    "ARG_OF_PERICENTER": 90.9506,
    "MEAN_ANOMALY": 269.1654,
    "EPHEMERIS_TYPE": 0,
    "CLASSIFICATION_TYPE": "U",
    "NORAD_CAT_ID": 58972,
    "ELEMENT_SET_NO": 999,
    "REV_AT_EPOCH": 9838,
    "BSTAR": 2.6791e-06,
    "MEAN_MOTION_DOT": -2.8e-06,
    "MEAN_MOTION_DDOT": 0.0,
    "TLE_LINE1": "1 58972U 24031H   25315.20513274 -.00000280  00000+0  26791-5 0  9991",
    "TLE_LINE2": "2 58972  53.1605 126.9746 0001383  90.9506 269.1654 15.30201562 98388",
    "COMMENT": "Grouped by shell and plane from TLE"
  },
  {
    "OBJECT_NAME": "STARLINK-31365",
    "OBJECT_ID": "24031J",
    "EPOCH": "2025-11-11T05:04:30.109440",
    "MEAN_MOTION": 15.30195404,
    "ECCENTRICITY": 0.0001247,
    "INCLINATION": 53.1612,
    "RA_OF_ASC_NODE": 127.0128,
    "ARG_OF_PERICENTER": 85.6723,
    "MEAN_ANOMALY": 274.4421,
    "EPHEMERIS_TYPE": 0,
    "CLASSIFICATION_TYPE": "U",
    "NORAD_CAT_ID": 58973,
    "ELEMENT_SET_NO": 999,
    "REV_AT_EPOCH": 9839,
    "BSTAR": 4.1776e-05,
    "MEAN_MOTION_DOT": 8.78e-06,
    "MEAN_MOTION_DDOT": 0.0,
    "TLE_LINE1": "1 58973U 24031J   25315.21145960  .00000878  00000+0  41776-4 0  9997",
    "TLE_LINE2": "2 58973  53.1612 127.0128 0001247  85.6723 274.4421 15.30195404 98393",
    "COMMENT": "Grouped by shell and plane from TLE"
  },
  {
    "OBJECT_NAME": "STARLINK-31361",
    "OBJECT_ID": "24031K",
    "EPOCH": "2025-11-11T06:33:59.776992",
    "MEAN_MOTION": 15.30197969,
    "ECCENTRICITY": 8.81e-05,
    "INCLINATION": 53.1599,
    "RA_OF_ASC_NODE": 126.6881,
    "ARG_OF_PERICENTER": 55.5089,
    "MEAN_ANOMALY": 304.5995,
    "EPHEMERIS_TYPE": 0,
    "CLASSIFICATION_TYPE": "U",
    "NORAD_CAT_ID": 58974,
    "ELEMENT_SET_NO": 999,
    "REV_AT_EPOCH": 9840,
    "BSTAR": 7.9526e-05,
    "MEAN_MOTION_DOT": 1.997e-05,
    "MEAN_MOTION_DDOT": 0.0,
    "TLE_LINE1": "1 58974U 24031K   25315.27360853  .00001997  00000+0  79526-4 0  9991",
    "TLE_LINE2": "2 58974  53.1599 126.6881 0000881  55.5089 304.5995 15.30197969 98404",
    "COMMENT": "Grouped by shell and plane from TLE"
  },
  {
    "OBJECT_NAME": "STARLINK-31369",
    "OBJECT_ID": "24031L",
    "EPOCH": "2025-11-11T05:09:04.298112",
    "MEAN_MOTION": 15.30199192,
    "ECCENTRICITY": 0.000158,
    "INCLINATION": 53.1598,
    "RA_OF_ASC_NODE": 127.03,
    "ARG_OF_PERICENTER": 96.3992,
    "MEAN_ANOMALY": 263.7189,
    "EPHEMERIS_TYPE": 0,
    "CLASSIFICATION_TYPE": "U",
    "NORAD_CAT_ID": 58975,
    "ELEMENT_SET_NO": 999,
    "REV_AT_EPOCH": 9837,
    "BSTAR": 5.0281e-05,
    "MEAN_MOTION_DOT": 1.13e-05,
    "MEAN_MOTION_DDOT": 0.0,
    "TLE_LINE1": "1 58975U 24031L   25315.21463308  .00001130  00000+0  50281-4 0  9991",
    "TLE_LINE2": "2 58975  53.1598 127.0300 0001580  96.3992 263.7189 15.30199192 98375",
    "COMMENT": "Grouped by shell and plane from TLE"
  },
  {
    "OBJECT_NAME": "STARLINK-31324",
    "OBJECT_ID": "24031M",
    "EPOCH": "2025-11-11T05:13:36.953184",
    "MEAN_MOTION": 15.3017963,
    "ECCENTRICITY": 0.0001548,
    "INCLINATION": 53.1599,
    "RA_OF_ASC_NODE": 127.0493,
    "ARG_OF_PERICENTER": 79.0165,
    "MEAN_ANOMALY": 281.101,
    "EPHEMERIS_TYPE": 0,
    "CLASSIFICATION_TYPE": "U",
    "NORAD_CAT_ID": 58976,
    "ELEMENT_SET_NO": 999,
    "REV_AT_EPOCH": 9837,
    "BSTAR": 0.00011309,
    "MEAN_MOTION_DOT": 2.99e-05,
    "MEAN_MOTION_DDOT": 0.0,
    "TLE_LINE1": "1 58976U 24031M   25315.21778881  .00002990  00000+0  11309-3 0  9999",
    "TLE_LINE2": "2 58976  53.1599 127.0493 0001548  79.0165 281.1010 15.30179630 98376",
    "COMMENT": "Grouped by shell and plane from TLE"
  },
  {
    "OBJECT_NAME": "STARLINK-31358",
    "OBJECT_ID": "24031N",
    "EPOCH": "2025-11-11T04:26:31.039872",
    "MEAN_MOTION": 15.30194311,
    "ECCENTRICITY": 0.0001162,
    "INCLINATION": 53.1585,
    "RA_OF_ASC_NODE": 126.8388,
    "ARG_OF_PERICENTER": 91.5916,
    "MEAN_ANOMALY": 268.5218,
    "EPHEMERIS_TYPE": 0,
    "CLASSIFICATION_TYPE": "U",
    "NORAD_CAT_ID": 58977,
    "ELEMENT_SET_NO": 999,
    "REV_AT_EPOCH": 9837,
    "BSTAR": 3.9336e-05,
    "MEAN_MOTION_DOT": 8.06e-06,
    "MEAN_MOTION_DDOT": 0.0,
    "TLE_LINE1": "1 58977U 24031N   25315.18508148  .00000806  00000+0  39336-4 0  9998",
    "TLE_LINE2": "2 58977  53.1585 126.8388 0001162  91.5916 268.5218 15.30194311 98379",
    "COMMENT": "Grouped by shell and plane from TLE"
  },
  {
    "OBJECT_NAME": "STARLINK-31355",
    "OBJECT_ID": "24031P",
    "EPOCH": "2025-11-11T05:18:11.160864",
    "MEAN_MOTION": 15.3019273,
    "ECCENTRICITY": 0.0001478,
    "INCLINATION": 53.1609,
    "RA_OF_ASC_NODE": 127.0681,
    "ARG_OF_PERICENTER": 89.8102,
    "MEAN_ANOMALY": 270.3068,
    "EPHEMERIS_TYPE": 0,
    "CLASSIFICATION_TYPE": "U",
    "NORAD_CAT_ID": 58978,
    "ELEMENT_SET_NO": 999,
    "REV_AT_EPOCH": 9837,
    "BSTAR": 2.8310000000000002e-05,
    "MEAN_MOTION_DOT": 4.79e-06,
    "MEAN_MOTION_DDOT": 0.0,
    "TLE_LINE1": "1 58978U 24031P   25315.22096251  .00000479  00000+0  28310-4 0  9997",
    "TLE_LINE2": "2 58978  53.1609 127.0681 0001478  89.8102 270.3068 15.30192730 98370",
    "COMMENT": "Grouped by shell and plane from TLE"
  },
  {
    "OBJECT_NAME": "STARLINK-31380",
    "OBJECT_ID": "24031Q",
    "EPOCH": "2025-11-10T21:32:27.666816",
    "MEAN_MOTION": 15.30194336,
    "ECCENTRICITY": 0.0001535,
    "INCLINATION": 53.1599,
    "RA_OF_ASC_NODE": 128.6047,
    "ARG_OF_PERICENTER": 69.0327,
    "MEAN_ANOMALY": 291.0838,
    "EPHEMERIS_TYPE": 0,
    "CLASSIFICATION_TYPE": "U",
    "NORAD_CAT_ID": 58979,
    "ELEMENT_SET_NO": 999,
    "REV_AT_EPOCH": 9832,
    "BSTAR": 0.0,
    "MEAN_MOTION_DOT": -5.2e-06,
    "MEAN_MOTION_DDOT": 0.0,
    "TLE_LINE1": "1 58979U 24031Q   25314.89754244 -.00000520  00000+0 -54410-5 0  9993",
    "TLE_LINE2": "2 58979  53.1599 128.6047 0001535  69.0327 291.0838 15.30194336 98329",
    "COMMENT": "Grouped by shell and plane from TLE"
  },
  {
    "OBJECT_NAME": "STARLINK-31353",
    "OBJECT_ID": "24031R",
    "EPOCH": "2025-11-10T21:29:25.976256",
    "MEAN_MOTION": 15.30199657,
    "ECCENTRICITY": 0.0001382,
    "INCLINATION": 53.1622,
    "RA_OF_ASC_NODE": 128.5951,
    "ARG_OF_PERICENTER": 82.9192,
    "MEAN_ANOMALY": 277.1966,
    "EPHEMERIS_TYPE": 0,
    "CLASSIFICATION_TYPE": "U",
    "NORAD_CAT_ID": 58980,
    "ELEMENT_SET_NO": 999,
    "REV_AT_EPOCH": 9832,
    "BSTAR": 3.8613e-05,
    "MEAN_MOTION_DOT": 7.84e-06,
    "MEAN_MOTION_DDOT": 0.0,
    "TLE_LINE1": "1 58980U 24031R   25314.89543954  .00000784  00000+0  38613-4 0  9995",
    "TLE_LINE2": "2 58980  53.1622 128.5951 0001382  82.9192 277.1966 15.30199657 98323",
    "COMMENT": "Grouped by shell and plane from TLE"
  },
  {
    "OBJECT_NAME": "STARLINK-31339",
    "OBJECT_ID": "24031S",
    "EPOCH": "2025-11-10T21:37:01.586784",
    "MEAN_MOTION": 15.3021124,
    "ECCENTRICITY": 0.0001438,
    "INCLINATION": 53.1583,
    "RA_OF_ASC_NODE": 128.6243,
    "ARG_OF_PERICENTER": 99.8015,
    "MEAN_ANOMALY": 260.3148,
    "EPHEMERIS_TYPE": 0,
    "CLASSIFICATION_TYPE": "U",
    "NORAD_CAT_ID": 58981,
    "ELEMENT_SET_NO": 999,
    "REV_AT_EPOCH": 9832,
    "BSTAR": 0.0,
    "MEAN_MOTION_DOT": -1.867e-05,
    "MEAN_MOTION_DDOT": 0.0,
    "TLE_LINE1": "1 58981U 24031S   25314.90071281 -.00001867  00000+0 -50916-4 0  9992",
    "TLE_LINE2": "2 58981  53.1583 128.6243 0001438  99.8015 260.3148 15.30211240 98327",
    "COMMENT": "Grouped by shell and plane from TLE"
  },
  {
    "OBJECT_NAME": "STARLINK-31384",
    "OBJECT_ID": "24031U",
    "EPOCH": "2025-11-10T21:46:11.039808",
    "MEAN_MOTION": 15.30177713,
    "ECCENTRICITY": 0.0001008,
    "INCLINATION": 53.1579,
    "RA_OF_ASC_NODE": 128.6631,
    "ARG_OF_PERICENTER": 63.6453,
    "MEAN_ANOMALY": 296.4651,
    "EPHEMERIS_TYPE": 0,
    "CLASSIFICATION_TYPE": "U",
    "NORAD_CAT_ID": 58983,
    "ELEMENT_SET_NO": 999,
    "REV_AT_EPOCH": 9832,
    "BSTAR": 0.0,
    "MEAN_MOTION_DOT": -2.479e-05,
    "MEAN_MOTION_DDOT": 0.0,
    "TLE_LINE1": "1 58983U 24031U   25314.90707222 -.00002479  00000+0 -71655-4 0  9998",
    "TLE_LINE2": "2 58983  53.1579 128.6631 0001008  63.6453 296.4651 15.30177713 98328",
    "COMMENT": "Grouped by shell and plane from TLE"
  },
  {
    "OBJECT_NAME": "STARLINK-31379",
    "OBJECT_ID": "24031V",
    "EPOCH": "2025-11-10T18:44:07.200960",
    "MEAN_MOTION": 15.3020831,
    "ECCENTRICITY": 9.85e-05,
    "INCLINATION": 53.1584,
    "RA_OF_ASC_NODE": 129.2957,
    "ARG_OF_PERICENTER": 72.892,
    "MEAN_ANOMALY": 287.2188,
    "EPHEMERIS_TYPE": 0,
    "CLASSIFICATION_TYPE": "U",
    "NORAD_CAT_ID": 58984,
    "ELEMENT_SET_NO": 999,
    "REV_AT_EPOCH": 9830,
    "BSTAR": 0.0,
    "MEAN_MOTION_DOT": -2.292e-05,
    "MEAN_MOTION_DDOT": 0.0,
    "TLE_LINE1": "1 58984U 24031V   25314.78063890 -.00002292  00000+0 -65264-4 0  9993",
    "TLE_LINE2": "2 58984  53.1584 129.2957 0000985  72.8920 287.2188 15.30208310 98306",
    "COMMENT": "Grouped by shell and plane from TLE"
  },
  {
    "OBJECT_NAME": "STARLINK-31385",
    "OBJECT_ID": "24031W",
    "EPOCH": "2025-11-11T05:06:46.166112",
    "MEAN_MOTION": 15.30181193,
    "ECCENTRICITY": 0.0001408,
    "INCLINATION": 53.161,
    "RA_OF_ASC_NODE": 124.8516,
    "ARG_OF_PERICENTER": 97.3768,
    "MEAN_ANOMALY": 262.7393,
    "EPHEMERIS_TYPE": 0,
    "CLASSIFICATION_TYPE": "U",
    "NORAD_CAT_ID": 58985,
    "ELEMENT_SET_NO": 999,
    "REV_AT_EPOCH": 9840,
    "BSTAR": 0.00022707,
    "MEAN_MOTION_DOT": 6.368e-05,
    "MEAN_MOTION_DDOT": 0.0,
    "TLE_LINE1": "1 58985U 24031W   25315.21303433  .00006368  00000+0  22707-3 0  9993",
    "TLE_LINE2": "2 58985  53.1610 124.8516 0001408  97.3768 262.7393 15.30181193 98408",
    "COMMENT": "Grouped by shell and plane from TLE"
  }
]